$$SOE
2460154.500000000, A.D. 2023-Jul-29 00:00:00.0000, -2.150385320225179E+08, 1.313549625546383E+08, -8.655019817163092E+07,
2460161.500000000, A.D. 2023-Aug-05 00:00:00.0000, -2.223554525792446E+08, 1.193637794129533E+08, -8.653236784584889E+07,
2460168.500000000, A.D. 2023-Aug-12 00:00:00.0000, -2.291041427996804E+08, 1.070675046438988E+08, -8.629338038358864E+07,
2460175.500000000, A.D. 2023-Aug-19 00:00:00.0000, -2.352700761125527E+08, 9.449882817086801E+07, -8.583486951810494E+07,
2460182.500000000, A.D. 2023-Aug-26 00:00:00.0000, -2.408407101758485E+08, 8.169097795485342E+07, -8.515914652851471E+07,
2460189.500000000, A.D. 2023-Sep-02 00:00:00.0000, -2.458055049411831E+08, 6.867756358425835E+07, -8.426917735976681E+07,
2460196.500000000, A.D. 2023-Sep-09 00:00:00.0000, -2.501559267632751E+08, 5.549242194132771E+07, -8.316855606878242E+07,
2460203.500000000, A.D. 2023-Sep-16 00:00:00.0000, -2.538854389194262E+08, 4.216946636988790E+07, -8.186147503967674E+07,
2460210.500000000, A.D. 2023-Sep-23 00:00:00.0000, -2.569894788243688E+08, 2.874254098507791E+07, -8.035269243130466E+07,
2460217.500000000, A.D. 2023-Sep-30 00:00:00.0000, -2.594654231257603E+08, 1.524528252082613E+07, -7.864749719222870E+07,
2460224.500000000, A.D. 2023-Oct-07 00:00:00.0000, -2.613125440010378E+08, 1.710990213011786E+06, -7.675167194273280E+07,
2460231.500000000, A.D. 2023-Oct-14 00:00:00.0000, -2.625319566822854E+08, -1.182749872263566E+07, -7.467145456289835E+07,
2460238.500000000, A.D. 2023-Oct-21 00:00:00.0000, -2.631265561095176E+08, -2.533792570814633E+07, -7.241349910946292E+07,
2460245.500000000, A.D. 2023-Oct-28 00:00:00.0000, -2.631009452904293E+08, -3.878871672426023E+07, -6.998483617269900E+07,
2460252.500000000, A.D. 2023-Nov-04 00:00:00.0000, -2.624613577851658E+08, -5.214907795423555E+07, -6.739283302463268E+07,
2460259.500000000, A.D. 2023-Nov-11 00:00:00.0000, -2.612155753108101E+08, -6.538908155916993E+07, -6.464515400604721E+07,
2460266.500000000, A.D. 2023-Nov-18 00:00:00.0000, -2.593728413911483E+08, -7.847974159800974E+07, -6.174972152415635E+07,
2460273.500000000, A.D. 2023-Nov-25 00:00:00.0000, -2.569437720724420E+08, -9.139308015240684E+07, -5.871467796969323E+07,
2460280.500000000, A.D. 2023-Dec-02 00:00:00.0000, -2.539402647076547E+08, -1.041021838728806E+08, -5.554834882040126E+07,
2460287.500000000, A.D. 2023-Dec-09 00:00:00.0000, -2.503754056902126E+08, -1.165812513158712E+08, -5.225920716740459E+07,
2460294.500000000, A.D. 2023-Dec-16 00:00:00.0000, -2.462633777288593E+08, -1.288056314578172E+08, -4.885583987577544E+07,
2460301.500000000, A.D. 2023-Dec-23 00:00:00.0000, -2.416193671082502E+08, -1.407518531688627E+08, -4.534691550332353E+07,
2460308.500000000, A.D. 2023-Dec-30 00:00:00.0000, -2.364594729785835E+08, -1.523976451229373E+08, -4.174115388121435E+07,
2460315.500000000, A.D. 2024-Jan-06 00:00:00.0000, -2.308006210618348E+08, -1.637219490745866E+08, -3.804729746670433E+07,
2460322.500000000, A.D. 2024-Jan-13 00:00:00.0000, -2.246604791372259E+08, -1.747049289077724E+08, -3.427408495686506E+07,
2460329.500000000, A.D. 2024-Jan-20 00:00:00.0000, -2.180573735354576E+08, -1.853279729750473E+08, -3.043022704103791E+07,
2460336.500000000, A.D. 2024-Jan-27 00:00:00.0000, -2.110102090284356E+08, -1.955736896651621E+08, -2.652438403704301E+07,
2460343.500000000, A.D. 2024-Feb-03 00:00:00.0000, -2.035383927997972E+08, -2.054258977273141E+08, -2.256514540994620E+07,
2460350.500000000, A.D. 2024-Feb-10 00:00:00.0000, -1.956617623912329E+08, -2.148696122286789E+08, -1.856101117518300E+07,
2460357.500000000, A.D. 2024-Feb-17 00:00:00.0000, -1.874005176117178E+08, -2.238910267301844E+08, -1.452037514941613E+07,
2460364.500000000, A.D. 2024-Feb-24 00:00:00.0000, -1.787751564722768E+08, -2.324774922379014E+08, -1.045150999198055E+07,
2460371.500000000, A.D. 2024-Mar-02 00:00:00.0000, -1.698064151748447E+08, -2.406174934887369E+08, -6.362553964034498E+06,
2460378.500000000, A.D. 2024-Mar-09 00:00:00.0000, -1.605152120192764E+08, -2.483006231115949E+08, -2.261499329345211E+06,
2460385.500000000, A.D. 2024-Mar-16 00:00:00.0000, -1.509225947838147E+08, -2.555175539059445E+08, 1.843817684620991E+06,
2460392.500000000, A.D. 2024-Mar-23 00:00:00.0000, -1.410496915928511E+08, -2.622600085336389E+08, 5.945725568776056E+06,
2460399.500000000, A.D. 2024-Mar-30 00:00:00.0000, -1.309176673928550E+08, -2.685207270213864E+08, 1.003672516365719E+07,
2460406.500000000, A.D. 2024-Apr-06 00:00:00.0000, -1.205476856374125E+08, -2.742934357810163E+08, 1.410949604195958E+07,
2460413.500000000, A.D. 2024-Apr-13 00:00:00.0000, -1.099608714737615E+08, -2.795728176226268E+08, 1.815690148458955E+07,
2460420.500000000, A.D. 2024-Apr-20 00:00:00.0000, -9.917827721639934E+07, -2.843544803620687E+08, 2.217199245498393E+07,
2460427.500000000, A.D. 2024-Apr-27 00:00:00.0000, -8.822085144818832E+07, -2.886349248271588E+08, 2.614801076139410E+07,
2460434.500000000, A.D. 2024-May-04 00:00:00.0000, -7.710941147756588E+07, -2.924115131768076E+08, 3.007839143449460E+07,
2460441.500000000, A.D. 2024-May-11 00:00:00.0000, -6.586461872499892E+07, -2.956824378159834E+08, 3.395676437829766E+07,
2460448.500000000, A.D. 2024-May-18 00:00:00.0000, -5.450695676472370E+07, -2.984466910420588E+08, 3.777695537199511E+07,
2460455.500000000, A.D. 2024-May-25 00:00:00.0000, -4.305671180720024E+07, -3.007040355678150E+08, 4.153298650026129E+07,
2460462.500000000, A.D. 2024-Jun-01 00:00:00.0000, -3.153395537963504E+07, -3.024549760953280E+08, 4.521907607940857E+07,
2460469.500000000, A.D. 2024-Jun-08 00:00:00.0000, -1.995852878183023E+07, -3.037007320559815E+08, 4.882963812728444E+07,
2460476.500000000, A.D. 2024-Jun-15 00:00:00.0000, -8.350028745822057E+06, -3.044432110410168E+08, 5.235928144997198E+07,
2460483.500000000, A.D. 2024-Jun-22 00:00:00.0000, 3.272204864092389E+06, -3.046849817971988E+08, 5.580280859080514E+07,
2460490.500000000, A.D. 2024-Jun-29 00:00:00.0000, 1.488909735649879E+07, -3.044292486415426E+08, 5.915521473718140E+07,
2460497.500000000, A.D. 2024-Jul-06 00:00:00.0000, 2.648184633501542E+07, -3.036798297914903E+08, 6.241168618626042E+07,
2460504.500000000, A.D. 2024-Jul-13 00:00:00.0000, 3.803192974795166E+07, -3.024411368105428E+08, 6.556759846792924E+07,
2460511.500000000, A.D. 2024-Jul-20 00:00:00.0000, 4.952111303016565E+07, -3.007181540390032E+08, 6.861851444816411E+07,
2460518.500000000, A.D. 2024-Jul-27 00:00:00.0000, 6.093145482005823E+07, -2.985164189776664E+08, 7.156018244001925E+07,
2460525.500000000, A.D. 2024-Aug-03 00:00:00.0000, 7.224531165298823E+07, -2.958420039974537E+08, 7.438853430852009E+07,
2460532.500000000, A.D. 2024-Aug-10 00:00:00.0000, 8.344534191619816E+07, -2.927014993671120E+08, 7.709968359057471E+07,
2460539.500000000, A.D. 2024-Aug-17 00:00:00.0000, 9.451450922566012E+07, -2.891019975552396E+08, 7.968992365790235E+07,
2460546.500000000, A.D. 2024-Aug-24 00:00:00.0000, 1.054360853627912E+08, -2.850510788001202E+08, 8.215572594452542E+07,
2460553.500000000, A.D. 2024-Aug-31 00:00:00.0000, 1.161936529941357E+08, -2.805567979776875E+08, 8.449373824779293E+07,
2460560.500000000, A.D. 2024-Sep-07 00:00:00.0000, 1.267711086413724E+08, -2.756276726093173E+08, 8.670078310415736E+07,
2460567.500000000, A.D. 2024-Sep-14 00:00:00.0000, 1.371526660816813E+08, -2.702726709792094E+08, 8.877385633585387E+07,
2460574.500000000, A.D. 2024-Sep-21 00:00:00.0000, 1.473228582382919E+08, -2.645011999099556E+08, 9.071012600746718E+07,
2460581.500000000, A.D. 2024-Sep-28 00:00:00.0000, 1.572665371584287E+08, -2.583230953795645E+08, 9.250693158894059E+07,
2460588.500000000, A.D. 2024-Oct-05 00:00:00.0000, 1.669688758320597E+08, -2.517486159322797E+08, 9.416178300390224E+07,
2460595.500000000, A.D. 2024-Oct-12 00:00:00.0000, 1.764153715713348E+08, -2.447884358596101E+08, 9.567235985717268E+07,
2460602.500000000, A.D. 2024-Oct-19 00:00:00.0000, 1.855918492734020E+08, -2.374536383784603E+08, 9.703651099602844E+07,
2460609.500000000, A.D. 2024-Oct-26 00:00:00.0000, 1.944844646012322E+08, -2.297557095604390E+08, 9.825225435480627E+07,
2460616.500000000, A.D. 2024-Nov-02 00:00:00.0000, 2.030797074024329E+08, -2.217065331087639E+08, 9.931777705405556E+07,
2460623.500000000, A.D. 2024-Nov-09 00:00:00.0000, 2.113644055246761E+08, -2.133183859045623E+08, 1.002314357497283E+08,
2460630.500000000, A.D. 2024-Nov-16 00:00:00.0000, 2.193257291185612E+08, -2.046039342605577E+08, 1.009917572322482E+08,
2460637.500000000, A.D. 2024-Nov-23 00:00:00.0000, 2.269511955423929E+08, -1.955762308690329E+08, 1.015974392726806E+08,
2460644.500000000, A.D. 2024-Nov-30 00:00:00.0000, 2.342286751445108E+08, -1.862487124241409E+08, 1.020473517033890E+08,
2460651.500000000, A.D. 2024-Dec-07 00:00:00.0000, 2.411463984076748E+08, -1.766351974368850E+08, 1.023405377426915E+08,
2460658.500000000, A.D. 2024-Dec-14 00:00:00.0000, 2.476929638269463E+08, -1.667498829602141E+08, 1.024762157405777E+08,
2460665.500000000, A.D. 2024-Dec-21 00:00:00.0000, 2.538573442547205E+08, -1.566073414040750E+08, 1.024537814640611E+08,
2460672.500000000, A.D. 2024-Dec-28 00:00:00.0000, 2.596288937326477E+08, -1.462225203364005E+08, 1.022728104975241E+08,
2460679.500000000, A.D. 2025-Jan-04 00:00:00.0000, 2.649973574572071E+08, -1.356107428138103E+08, 1.019330607114749E+08,
2460686.500000000, A.D. 2025-Jan-11 00:00:00.0000, 2.699528831095427E+08, -1.247877064999120E+08, 1.014344751022276E+08,
2460693.500000000, A.D. 2025-Jan-18 00:00:00.0000, 2.744860326827287E+08, -1.137694824048793E+08, 1.007771850109368E+08,
2460700.500000000, A.D. 2025-Jan-25 00:00:00.0000, 2.785877950974209E+08, -1.025725136306449E+08, 9.996151365851644E+07,
2460707.500000000, A.D. 2025-Feb-01 00:00:00.0000, 2.822495998405295E+08, -9.121361405594468E+07, 9.898797997263041E+07,
2460714.500000000, A.D. 2025-Feb-08 00:00:00.0000, 2.854633317280597E+08, -7.970996683980343E+07, 9.785730269752502E+07,
$$EOE